NORAD_CAT_ID,OBJECT_NAME,OBJECT_TYPE,EPOCH,MEAN_MOTION,ECCENTRICITY,INCLINATION,RA_OF_ASC_NODE,ARG_OF_PERICENTER,MEAN_ANOMALY,BSTAR,MEAN_MOTION_DOT,MEAN_MOTION_DDOT,TLE_LINE0,TLE_LINE1,TLE_LINE2,SEMIMAJOR_AXIS,PERIOD,APOGEE,PERIGEE,DECAYED
53137.0,STARLINK-4145,PAYLOAD,2024-04-13 03:36:19,15.08843996,0.0001385,53.2179,56.5161,98.5744,261.5405,0.00011464,1.537e-05,0.0,0 STARLINK-4145,1 53137U 22083F   24104.15023000  .00001537  00000-0  11464-3 0  9991,2 53137  53.2179  56.5161 0001385  98.5744 261.5405 15.08843996 96849,6917.868,95.437,540.691,538.775,0.0
53137.0,STARLINK-4145,PAYLOAD,2024-04-13 06:47:06,15.08845326,0.0001386,53.218,55.9211,99.0341,261.0808,0.00012281,1.667e-05,0.0,0 STARLINK-4145,1 53137U 22083F   24104.28270877  .00001667  00000-0  12281-3 0  9993,2 53137  53.2180  55.9211 0001386  99.0341 261.0808 15.08845326 96234,6917.864,95.437,540.688,538.77,0.0
53137.0,STARLINK-4145,PAYLOAD,2024-04-14 03:27:07,15.08836557,0.0001361,53.2189,52.0535,101.1089,259.0056,4.8678e-05,4.87e-06,0.0,0 STARLINK-4145,1 53137U 22083F   24105.14383926  .00000487  00000-0  48678-4 0  9998,2 53137  53.2189  52.0535 0001361 101.1089 259.0056 15.08836557 96998,6917.891,95.438,540.697,538.814,0.0
53137.0,STARLINK-4145,PAYLOAD,2024-04-15 03:17:54,15.0884968,0.0001472,53.2197,47.5978,107.7908,252.3245,7.6998e-05,9.38e-06,0.0,0 STARLINK-4145,1 53137U 22083F   24106.13743271  .00000938  00000-0  76998-4 0  9998,2 53137  53.2197  47.5978 0001472 107.7908 252.3245 15.08849680 97147,6917.851,95.437,540.734,538.697,0.0
53137.0,STARLINK-4145,PAYLOAD,2024-04-15 06:28:40,15.08849022,0.0001508,53.219,46.9988,106.7122,253.4036,0.00010197,1.336e-05,0.0,0 STARLINK-4145,1 53137U 22083F   24106.26991201  .00001336  00000-0  10197-3 0  9991,2 53137  53.2190  46.9988 0001508 106.7122 253.4036 15.08849022 96533,6917.853,95.437,540.761,538.675,0.0
53137.0,STARLINK-4145,PAYLOAD,2024-04-16 04:44:04,15.08844973,0.000179,53.2194,42.8416,102.037,258.0822,6.5312e-05,7.52e-06,0.0,0 STARLINK-4145,1 53137U 22083F   24107.19727610  .00000752  00000-0  65312-4 0  9996,2 53137  53.2194  42.8416 0001790 102.0370 258.0822 15.08844973 97305,6917.865,95.437,540.968,538.492,0.0
53137.0,STARLINK-4145,PAYLOAD,2024-04-16 12:41:00,15.08849386,0.0001629,53.2188,41.3532,92.1405,267.9774,0.00018092,2.593e-05,0.0,0 STARLINK-4145,1 53137U 22083F   24107.52847287  .00002593  00000-0  18092-3 0  9993,2 53137  53.2188  41.3532 0001629  92.1405 267.9774 15.08849386 96723,6917.852,95.437,540.844,538.59,0.0
53137.0,STARLINK-4145,PAYLOAD,2024-04-17 04:34:53,15.08814118,0.0001826,53.2178,38.3791,108.2784,251.8407,-0.00050046,-8.239e-05,0.0,0 STARLINK-4145,1 53137U 22083F   24108.19090003 -.00008239  00000-0 -50046-3 0  9993,2 53137  53.2178  38.3791 0001826 108.2784 251.8407 15.08814118 97454,6917.96,95.439,541.088,538.561,0.0
53137.0,STARLINK-4145,PAYLOAD,2024-04-18 01:14:52,15.0886737,0.0001936,53.2178,34.5127,121.8994,238.2186,0.00054853,8.459e-05,0.0,0 STARLINK-4145,1 53137U 22083F   24109.05199868  .00008459  00000-0  54853-3 0  9990,2 53137  53.2178  34.5127 0001936 121.8994 238.2186 15.08867370 97586,6917.797,95.436,541.001,538.322,0.0
53137.0,STARLINK-4145,PAYLOAD,2024-04-19 04:16:26,15.08850398,0.000191,53.2175,29.4532,120.5034,239.6147,0.00047544,7.289e-05,0.0,0 STARLINK-4145,1 53137U 22083F   24110.17809000  .00007289  00000-0  47544-3 0  9990,2 53137  53.2175  29.4532 0001910 120.5034 239.6147 15.08850398 97752,6917.849,95.437,541.035,538.392,0.0
53137.0,STARLINK-4145,PAYLOAD,2024-04-19 21:45:40,15.0885835,0.0002047,53.2187,26.1783,109.8884,250.2328,0.00012167,1.65e-05,0.0,0 STARLINK-4145,1 53137U 22083F   24110.90671932  .00001650  00000-0  12167-3 0  9991,2 53137  53.2187  26.1783 0002047 109.8884 250.2328 15.08858350 97231,6917.824,95.436,541.105,538.273,0.0
53137.0,STARLINK-4145,PAYLOAD,2024-04-20 04:07:12,15.08886996,0.0001993,53.218,24.9944,77.32,282.8015,0.00060764,9.408e-05,0.0,0 STARLINK-4145,1 53137U 22083F   24111.17166698  .00009408  00000-0  60764-3 0  9994,2 53137  53.2180  24.9944 0001993  77.3200 282.8015 15.08886996 97904,6917.737,95.435,540.98,538.223,0.0
53137.0,STARLINK-4145,PAYLOAD,2024-04-20 21:36:27,15.0883189,0.000202,53.2185,21.7191,127.0135,233.1042,-0.00027958,-4.734e-05,0.0,0 STARLINK-4145,1 53137U 22083F   24111.90032219 -.00004734  00000-0 -27958-3 0  9993,2 53137  53.2185  21.7191 0002020 127.0135 233.1042 15.08831890 97384,6917.905,95.438,541.168,538.373,0.0
53137.0,STARLINK-4145,PAYLOAD,2024-04-21 03:58:01,15.08824305,0.0001413,53.2185,20.5384,111.4412,248.6731,-0.00025812,-4.392e-05,0.0,0 STARLINK-4145,1 53137U 22083F   24112.16529173 -.00004392  00000-0 -25812-3 0  9999,2 53137  53.2185  20.5384 0001413 111.4412 248.6731 15.08824305 98059,6917.928,95.439,540.771,538.816,0.0
53137.0,STARLINK-4145,PAYLOAD,2024-04-21 05:33:24,15.08829691,0.0001199,53.2187,20.242,103.7876,256.325,-0.00030884,-5.198e-05,0.0,0 STARLINK-4145,1 53137U 22083F   24112.23152784 -.00005198  00000-0 -30884-3 0  9997,2 53137  53.2187  20.2420 0001199 103.7876 256.3250 15.08829691 97434,6917.912,95.438,540.606,538.947,0.0
53137.0,STARLINK-4145,PAYLOAD,2024-04-21 18:16:29,15.08835009,0.0001352,53.219,17.8631,117.0687,243.0443,-0.00039654,-6.592e-05,0.0,0 STARLINK-4145,1 53137U 22083F   24112.76145191 -.00006592  00000-0 -39654-3 0  9992,2 53137  53.2190  17.8631 0001352 117.0687 243.0443 15.08835009 98149,6917.896,95.438,540.696,538.825,0.0
53137.0,STARLINK-4145,PAYLOAD,2024-04-21 21:27:14,15.08850416,0.0001472,53.2183,17.2635,101.5158,258.6,-0.00012086,-2.212e-05,0.0,0 STARLINK-4145,1 53137U 22083F   24112.89392140 -.00002212  00000-0 -12086-3 0  9999,2 53137  53.2183  17.2635 0001472 101.5158 258.6000 15.08850416 97535,6917.849,95.437,540.732,538.695,0.0
53137.0,STARLINK-4145,PAYLOAD,2024-04-22 03:48:47,15.08853554,0.0001824,53.2188,16.0717,118.4759,241.6417,2.6997e-05,1.42e-06,0.0,0 STARLINK-4145,1 53137U 22083F   24113.15887829  .00000142  00000-0  26997-4 0  9997,2 53137  53.2188  16.0717 0001824 118.4759 241.6417 15.08853554 98208,6917.839,95.437,540.966,538.442,0.0
53137.0,STARLINK-4145,PAYLOAD,2024-04-22 16:31:53,15.08831661,0.0002984,53.219,13.6904,153.1086,207.0061,0.00021489,3.133e-05,0.0,0 STARLINK-4145,1 53137U 22083F   24113.68881214  .00003133  00000-0  21489-3 0  9990,2 53137  53.2190  13.6904 0002984 153.1086 207.0061 15.08831661 98283,6917.906,95.438,541.835,537.707,0.0
53137.0,STARLINK-4145,PAYLOAD,2024-04-22 22:53:25,15.08837063,0.0001426,53.2186,12.5124,118.395,241.7186,0.00028352,4.227e-05,0.0,0 STARLINK-4145,1 53137U 22083F   24113.95377219  .00004227  00000-0  28352-3 0  9996,2 53137  53.2186  12.5124 0001426 118.3950 241.7186 15.08837063 97692,6917.889,95.438,540.741,538.768,0.0
53137.0,STARLINK-4145,PAYLOAD,2024-04-23 02:04:11,15.08849762,0.0001,53.2188,11.9157,83.4826,276.628,0.00044391,6.786e-05,0.0,0 STARLINK-4145,1 53137U 22083F   24114.08624706  .00006786  00000-0  44391-3 0  9990,2 53137  53.2188  11.9157 0001000  83.4826 276.6280 15.08849762 98349,6917.851,95.437,540.407,539.024,0.0
53137.0,STARLINK-4145,PAYLOAD,2024-04-23 21:08:50,15.08835606,0.0001332,53.2183,8.3402,95.9387,264.1757,-0.00012726,-2.312e-05,0.0,0 STARLINK-4145,1 53137U 22083F   24114.88113595 -.00002312  00000-0 -12726-3 0  9997,2 53137  53.2183   8.3402 0001332  95.9387 264.1757 15.08835606 98461,6917.894,95.438,540.68,538.837,0.0
53137.0,STARLINK-4145,PAYLOAD,2024-04-23 22:44:13,15.08837439,0.00016,53.2183,8.0433,87.2984,272.8191,-8.9216e-05,-1.708e-05,0.0,0 STARLINK-4145,1 53137U 22083F   24114.94737617 -.00001708  00000-0 -89216-4 0  9998,2 53137  53.2183   8.0433 0001600  87.2984 272.8191 15.08837439 97842,6917.888,95.438,540.86,538.646,0.0
53137.0,STARLINK-4145,PAYLOAD,2024-04-24 01:54:58,15.08852771,0.000137,53.2185,7.4492,107.1172,252.997,0.00014526,2.025e-05,0.0,0 STARLINK-4145,1 53137U 22083F   24115.07984799  .00002025  00000-0  14526-3 0  9990,2 53137  53.2185   7.4492 0001370 107.1172 252.9970 15.08852771 98499,6917.841,95.437,540.654,538.759,0.0
53137.0,STARLINK-4145,PAYLOAD,2024-04-24 20:59:37,15.08842411,0.0001567,53.2188,3.8849,83.6185,276.4985,-1.6535e-05,-5.51e-06,0.0,0 STARLINK-4145,1 53137U 22083F   24115.87473588 -.00000551  00000-0 -16535-4 0  9994,2 53137  53.2188   3.8849 0001567  83.6185 276.4985 15.08842411 98619,6917.873,95.437,540.822,538.654,0.0
53137.0,STARLINK-4145,PAYLOAD,2024-04-24 22:34:59,15.0884502,0.0001465,53.218,3.5871,70.2027,289.9123,-3.9571e-05,-9.18e-06,0.0,0 STARLINK-4145,1 53137U 22083F   24115.94097096 -.00000918  00000-0 -39571-4 0  9990,2 53137  53.2180   3.5871 0001465  70.2027 289.9123 15.08845020 97999,6917.865,95.437,540.744,538.717,0.0
53137.0,STARLINK-4145,PAYLOAD,2024-04-25 00:10:22,15.08858318,0.0001195,53.2188,3.2928,88.752,271.3609,0.00020113,2.916e-05,0.0,0 STARLINK-4145,1 53137U 22083F   24116.00720478  .00002916  00000-0  20113-3 0  9994,2 53137  53.2188   3.2928 0001195  88.7520 271.3609 15.08858318 98639,6917.824,95.436,540.516,538.863,0.0
53137.0,STARLINK-4145,PAYLOAD,2024-04-25 20:50:24,15.08841961,0.0001426,53.2191,359.4225,86.5095,273.606,-3.1263e-05,-7.85e-06,0.0,0 STARLINK-4145,1 53137U 22083F   24116.86833480 -.00000785  00000-0 -31263-4 0  9999,2 53137  53.2191 359.4225 0001426  86.5095 273.6060 15.08841961 98765,6917.874,95.437,540.726,538.753,0.0
53137.0,STARLINK-4145,PAYLOAD,2024-04-25 22:25:47,15.08843966,0.0001665,53.22,359.1263,70.6546,289.4626,4.9833e-05,5.05e-06,0.0,0 STARLINK-4145,1 53137U 22083F   24116.93457803  .00000505  00000-0  49833-4 0  9998,2 53137  53.2200 359.1263 0001665  70.6546 289.4626 15.08843966 98147,6917.868,95.437,540.885,538.581,0.0
53137.0,STARLINK-4145,PAYLOAD,2024-04-26 09:33:29,15.08846778,0.0001476,53.2197,357.0456,81.614,278.5019,3.7371e-05,3.07e-06,0.0,0 STARLINK-4145,1 53137U 22083F   24117.39825313  .00000307  00000-0  37371-4 0  9998,2 53137  53.2197 357.0456 0001476  81.6140 278.5019 15.08846778 98212,6917.86,95.437,540.746,538.704,0.0
